STARLINK-31013
1 58526U 23191U   26060.27558885  .00033448  00000+0  23401-2 0  9997
2 58526  43.0012 151.0184 0001832 309.7065  50.3616 15.04707438124188
